USA 314
1 48247U 21032A   25228.99004365 0.00000700  00000-0  93682-4 0    00
2 48247  98.0830 342.8275 0154125 107.3157 252.6841 14.71511175    09
USA 316
1 48846U 21052A   25115.88221122 0.00008500  00000-0  59631-3 0    03
2 48846  54.9840  75.9811 0007000  23.7400 336.2599 15.04719191    01
USA 317
1 48847U 21052B   26041.20357395 0.00022000  00000-0  55743-3 0    02
2 48847  54.9696 125.1587 0001000 288.5877  71.4122 15.39199019    01
USA 318
1 48848U 21052C   25234.08468595 0.00004400  00000-0  29616-3 0    01
2 48848  54.9785 288.4875 0009274 251.8362 108.1637 15.06242642    01
Ceres 1
1 49464U 21105A   26049.22716693 0.00000500  00000-0  84721-4 0    07
2 49464  75.0754 202.5649 0003410 155.5874 204.4125 14.69284034    07
Ceres 2
1 49465U 21105B   26105.12801826 0.00000500  00000-0  84588-4 0    04
2 49465  75.0056  98.0725 0002000 257.7365 102.2634 14.69355077    06
Ceres 3
1 49466U 21105C   26049.22733381 0.00000650  00000-0  11014-3 0    02
2 49466  74.9981 202.4082 0003000 334.5929  25.4070 14.69282791    02
USA 326
1 51445U 22009A   25243.92803368 0.00008000  00000-0  34973-3 0    07
2 51445  97.4013 339.7018 0003778  46.4969 313.5029 15.22124480    01
USA 327
1 52259U 22040A   26102.88346386 0.00000000  00000-0  00000-0 0    01
2 52259  63.4300  18.5140 0009400  99.0993 260.9007 13.40997142    06
Sarah 1
1 52887U 22063A   26048.20502596 0.00000000  00000-0  00000-0 0    05
2 52887  98.3916  57.2595 0002074   0.7146 359.2852 14.43696703    09
USA 328
1 52889U 22064B   25002.75667207 0.00000100  00000-0  55176-5 0    08
2 52889  52.9976 332.8121 0008807 170.7245 189.2754 15.13418871    06
USA 329
1 52890U 22064C   24316.71940197 0.00000160  00000-0  88312-5 0    09
2 52890  53.0125 209.4844 0005879  20.4589 339.5410 15.13426190    07
USA 330
1 52891U 22064D   25012.73256558 0.00000000  00000-0  00000-0 0    03
2 52891  53.0058 287.8036 0006242 356.3156   3.6843 15.13407515    01
USA 331
1 52892U 22064E   25002.76038917 0.00000150  00000-0  82725-5 0    08
2 52892  53.0074 332.9962 0007211 194.5820 165.4178 15.13447596    08
USA 335
1 53352U 22091A   24296.76552711 0.00066500  00000-0  37376-2 0    07
2 53352  70.0128 158.2452 0003780 231.4901 128.5099 15.13172950    01
USA 338
1 53883U 22117A   26068.77557535 0.00016000  00000-0  25509-3 0    00
2 53883  73.5564  73.8509 0009000  49.1623 310.8376 15.53066004    03
USA 339
1 54220U 22144B   25358.92055737 0.00000000  00000-0  00000-0 0    00
2 54220   0.4891  82.4168 0004540 170.5132 189.8408  0.99099817    08
IGS Radar 7
1 55329U 23012A   26108.91516839 0.00000000  00000-0  00000-0 0    04
2 55329  97.3656 188.1677 0002304  89.2898 270.7100 15.25980971    07
USA 346
1 57836U 23140A   25165.20101659 0.00000000  00000-0  00000-0 0    05
2 57836  12.3140   7.1362 0000620 127.0857 232.9143  1.00270817    09
Sarah 2
1 58643U 23204A   25364.70454885 0.00000600  00000-0  27528-4 0    05
2 58643  88.1946 176.7685 0005300 353.8157   6.1610 15.20491300    03
Sarah 3
1 58644U 23204B   26107.83695281 0.00000000  00000-0  00000-0 0    09
2 58644  88.2073 151.0433 0003303  22.1862 337.8136 15.20293041    02
IGS Opt 8
1 58762U 24010A   25211.03312546 0.00000000  00000-0  00000-0 0    03
2 58762  97.3502 332.6017 0004332  72.2938 287.7061 15.27657128    06
USA 352
1 59288U 24053A   26071.77543472 0.00005000  00000-0  91679-4 0    05
2 59288  50.0103  30.1093 0005000 140.6283 219.3715 15.48598751    09
Mentor 10
1 59453U 24067A   25239.61844862 0.00000000  00000-0  00000-0 0    08
2 59453   6.9020 298.7686 0056010 176.6536 183.3464  1.00274000    00
USA 354 StarSh
1 59814U 24096A   26098.87678623 0.00000000  00000-0  00000-0 0    03
2 59814  70.0059 126.1963 0002000 199.9366 160.0634 14.96713384    09
USA 355 StarSh
1 59815U 24096B   26106.82060771 0.00000000  00000-0  00000-0 0    08
2 59815  70.0110 121.2462 0003000 296.0283  63.9717 14.96713045    03
USA 356 StarSh
1 59816U 24096C   26063.19504329 0.00000000  00000-0  00000-0 0    03
2 59816  69.9968 215.4713 0004000 326.8196  33.1804 14.96712518    03
USA 357 StarSh
1 59817U 24096D   26097.88760798 0.00000000  00000-0  00000-0 0    01
2 59817  70.0070 128.3915 0002000 319.8717  40.1282 14.96712485    07
USA 358 StarSh
1 59818U 24096E   26071.16562475 0.00000000  00000-0  00000-0 0    07
2 59818  70.0030 210.5696 0001000  32.2446 327.7554 14.96713300    01
USA 359 StarSh
1 59819U 24096F   26017.71333169 0.00000000  00000-0  00000-0 0    05
2 59819  69.9873 344.9125 0001850 222.1616 137.8384 14.96713476    00
USA 360 StarSh
1 59820U 24096G   26079.07441953 0.00000000  00000-0  00000-0 0    05
2 59820  70.0000 175.8084 0004000 326.2824  33.7176 14.96713560    06
USA 361 StarSh
1 59821U 24096H   26032.73305993 0.00000000  00000-0  00000-0 0    01
2 59821  69.9950 292.4040 0004000 126.9192 233.0807 14.96713003    07
USA 362 StarSh
1 59822U 24096J   26080.10106206 0.00000000  00000-0  00000-0 0    02
2 59822  70.0040 188.0276 0002000   3.7814 356.2185 14.96713208    07
USA 363 StarSh
1 59823U 24096K   26098.92103615 0.00000000  00000-0  00000-0 0    03
2 59823  69.9975 140.8807 0002995 305.8632  54.1368 14.96712429    06
USA 364 StarSh
1 59824U 24096L   26102.85073815 0.00000000  00000-0  00000-0 0    00
2 59824  70.0107 131.0358 0004000 123.8583 236.1416 14.96712583    09
USA 365 StarSh
1 59825U 24096M   26045.74278748 0.00000000  00000-0  00000-0 0    07
2 59825  70.0000 274.7611 0002000 359.5379   0.4621 14.96713508    06
USA 366 StarSh
1 59826U 24096N   26037.68528782 0.00000000  00000-0  00000-0 0    08
2 59826  69.9980 279.7838 0003000 356.7694   3.2306 14.96713475    01
USA 367 StarSh
1 59827U 24096P   25262.15087295 0.00000000  00000-0  00000-0 0    09
2 59827  69.9872 273.1986 0003547 281.8290  78.1710 14.96714543    07
USA 368 StarSh
1 59828U 24096Q   26034.71129446 0.00000000  00000-0  00000-0 0    05
2 59828  70.0000 287.4194 0003000  69.7580 290.2420 14.96712986    06
USA 369 StarSh
1 59829U 24096R   26040.71949510 0.00000000  00000-0  00000-0 0    05
2 59829  70.0056 272.2483 0003000  43.7408 316.2592 14.96713006    05
USA 370 StarSh
1 59830U 24096S   26079.11197258 0.00000000  00000-0  00000-0 0    07
2 59830  70.0060 190.5763 0002000 335.3979  24.6021 14.96712634    00
USA 371 StarSh
1 59831U 24096T   26032.73523743 0.00000000  00000-0  00000-0 0    07
2 59831  69.9972 292.1788 0006004 112.9000 247.1000 14.96712972    02
USA 372 StarSh
1 59832U 24096U   26104.83560271 0.00000000  00000-0  00000-0 0    06
2 59832  70.0082 125.9358 0007000 109.7503 250.2496 14.96713386    07
USA 373 StarSh
1 59833U 24096V   26097.92526213 0.00000000  00000-0  00000-0 0    06
2 59833  70.0070 143.5479 0004432 340.2885  19.7115 14.96712694    03
USA 374 StarSh
1 59834U 24096W   26080.06350190 0.00000000  00000-0  00000-0 0    03
2 59834  69.9992 173.1825 0004000 269.0095  90.9905 14.96712700    06
USA 380 StarSh
1 60163U 24121F   26056.80680618 0.00000000  00000-0  00000-0 0    05
2 60163  70.0020 306.8541 0005000 358.3416   1.6583 14.96712839    02
USA 382 StarSh
1 60165U 24121H   25204.91008624 0.00000000  00000-0  00000-0 0    04
2 60165  69.9901 132.0268 0003000  14.4240 345.5759 14.96713838    02
USA 383 StarSh
1 60166U 24121J   26062.77493809 0.00000000  00000-0  00000-0 0    05
2 60166  70.0000 291.9315 0005000   3.3042 356.6957 14.96712703    06
USA 384 StarSh
1 60167U 24121K   26056.80011295 0.00000000  00000-0  00000-0 0    08
2 60167  70.0043 306.8238 0004000  12.1925 347.8075 14.96712840    06
USA 385 StarSh
1 60168U 24121L   26033.72962329 0.00000000  00000-0  00000-0 0    08
2 60168  69.9928   4.6005 0004000 156.8722 203.1278 14.96712976    01
USA 386 StarSh
1 60169U 24121M   26057.79586902 0.00000000  00000-0  00000-0 0    01
2 60169  70.0150 304.2654 0003000 154.3610 205.6389 14.96714299    09
USA 388 StarSh
1 60171U 24121P   26034.71204065 0.00000000  00000-0  00000-0 0    08
2 60171  69.9952   2.0514 0003000 117.7459 242.2540 14.96713030    09
USA 389 StarSh
1 60172U 24121Q   26033.72519570 0.00000000  00000-0  00000-0 0    09
2 60172  69.9970   4.7706 0002000 187.2068 172.7931 14.96713000    07
USA 390 StarSh
1 60173U 24121R   26088.16442099 0.00000000  00000-0  00000-0 0    09
2 60173  70.0050 228.0786 0003000 354.8769   5.1231 14.96712832    04
USA 391 StarSh
1 60174U 24121S   24228.85535693 0.00000000  00000-0  00000-0 0    03
2 60174  70.0000 272.2608 0001000 329.4395  30.5604 14.96715000    01
USA 392 StarSh
1 60175U 24121T   26033.71625428 0.00000000  00000-0  00000-0 0    01
2 60175  69.9935   4.5457 0003000 330.6001  29.3999 14.96713000    05
USA 393 StarSh
1 60176U 24121U   26033.75640037 0.00000000  00000-0  00000-0 0    09
2 60176  69.9952   4.7069 0003000 131.2318 228.7681 14.96713004    09
USA 394 StarSh
1 60177U 24121V   24232.81723695 0.00000000  00000-0  00000-0 0    08
2 60177  70.0000 262.4349 0003000 249.5421 110.4578 14.96714267    03
USA 395 StarSh
1 60178U 24121W   26033.72293709 0.00000000  00000-0  00000-0 0    08
2 60178  69.9990   4.5870 0003000 169.6862 190.3138 14.96713000    07
USA 396
1 60322U 24134A   26024.92968435 0.00000000  00000-0  00000-0 0    00
2 60322   0.5630 265.5996 0000870  77.2228 282.7772  0.99754027    02
USA 400 StarSh
1 61021U 24160A   26099.04049373 0.00000000  00000-0  00000-0 0    02
2 61021  69.9970 185.5884 0003500 307.9995  52.0005 14.96712621    02
USA 401 StarSh
1 61022U 24160B   26030.74477065 0.00000000  00000-0  00000-0 0    08
2 61022  69.9883 357.1941 0003000 211.2603 148.7397 14.96713621    03
USA 402 StarSh
1 61023U 24160C   26085.15278568 0.00000000  00000-0  00000-0 0    01
2 61023  70.0060 220.5993 0002000  36.8486 323.1514 14.96712993    04
USA 403 StarSh
1 61024U 24160D   26084.15701581 0.00000000  00000-0  00000-0 0    07
2 61024  70.0040 223.1485 0002999 267.8777  92.1222 14.96713048    05
USA 404 StarSh
1 61025U 24160E   26029.67793781 0.00000000  00000-0  00000-0 0    07
2 61025  69.9870 344.7261 0002000   0.9037 359.0963 14.96713100    00
